IRIDIUM 7               
1 24793U 97020B   25188.03753429  .00000277  00000+0  88576-4 0  9993
2 24793  86.3990 168.5981 0002539  84.0000 276.1486 14.35949769474748
IRIDIUM 5               
1 24795U 97020D   25188.73230850  .00003181  00000+0  25788-3 0  9992
2 24795  86.3875  74.2579 0110931  65.1995 296.0724 14.94494823488569
IRIDIUM 4               
1 24796U 97020E   25188.84421075  .00000256  00000+0  80124-4 0  9992
2 24796  86.3988 165.1272 0002429  88.5537 271.5938 14.36852558475467
IRIDIUM 914             
1 24836U 97030A   25188.37284056  .00000351  00000+0  10339-3 0  9998
2 24836  86.3963 173.8604 0003326 114.4612 245.6935 14.40884496610034
IRIDIUM 16              
1 24841U 97030F   25188.50211429  .00000272  00000+0  82194-4 0  9994
2 24841  86.4046 196.7436 0003204  45.1070 315.0387 14.38725095469922
IRIDIUM 911             
1 24842U 97030G   25188.50747691  .00000410  00000+0  10555-3 0  9995
2 24842  86.4472 195.4897 0015540  37.5704 322.6582 14.47655127478028
IRIDIUM 17              
1 24870U 97034B   25188.84983102  .00000280  00000+0  86442-4 0  9990
2 24870  86.3949 226.0643 0001424  46.9414 313.1903 14.37840176466551
IRIDIUM 920             
1 24871U 97034C   25188.77014360  .00000303  00000+0  86913-4 0  9993
2 24871  86.3980 205.2874 0012355  24.5581 335.6205 14.41545820469802
